FENGYUN 3D              
1 43010U 17072A   26155.17998615  .00000163  00000+0  98819-4 0  9998
2 43010  99.0122 129.3677 0002628  83.1588 276.9886 14.19737171443142
NOAA 20 (JPSS-1)        
1 43013U 17073A   26155.10231675  .00000073  00000+0  55410-4 0  9991
2 43013  98.7770  94.6814 0000649  36.4151 323.7069 14.19509214442615
GOES 17                 
1 43226U 18022A   26155.18239306 -.00000171  00000+0  00000+0 0  9999
2 43226   0.9045  85.9525 0000760   5.2372 137.6159  1.00271727 30296
SENTINEL-3B             
1 43437U 18039A   26155.07542168  .00000147  00000+0  78971-4 0  9991
2 43437  98.6250 222.7952 0000983  75.0166 285.1124 14.26737956422255
FENGYUN 2H              
1 43491U 18050A   26155.08176334 -.00000120  00000+0  00000+0 0  9998
2 43491   2.9979  79.2237 0001422 127.7453 154.4556  1.00272036 29302
METOP-C                 
1 43689U 18087A   26155.11674962  .00000140  00000+0  83862-4 0  9994
2 43689  98.6649 214.9587 0001248 143.7544 216.3718 14.21508547392978
GEO-KOMPSAT-2A          
1 43823U 18100A   26154.73497059 -.00000332  00000+0  00000+0 0  9999
2 43823   0.0517 140.6437 0002341 302.9772 201.4258  1.00270341 27492
METEOR-M2 2             
1 44387U 19038A   26155.17887189 -.00000146  00000+0 -43400-4 0  9992
2 44387  98.9139 142.2728 0002350  67.4584 292.6843 14.24361453359449
ARKTIKA-M 1             
1 47719U 21016A   26153.03917935 -.00000200  00000+0  00000+0 0  9993
2 47719  63.2379  59.8266 7283239 269.8643  14.6915  2.00628509 38489
FENGYUN 3E              
1 49008U 21062A   26155.16530823 -.00000280  00000+0 -11121-3 0  9999
2 49008  98.7488 158.7183 0002646 107.0352 253.1115 14.19902065254732
GOES 18                 
1 51850U 22021A   26155.15253243  .00000109  00000+0  00000+0 0  9998
2 51850   0.0403 137.3393 0000606 341.7058  51.4693  1.00271598  6464
NOAA 21 (JPSS-2)        
1 54234U 22150A   26155.13569587  .00000092  00000+0  64299-4 0  9995
2 54234  98.7058  94.1442 0000911 188.6233 171.4927 14.19563072184690
METEOSAT-12 (MTG-I1)    
1 54743U 22170C   26155.13722117  .00000003  00000+0  00000+0 0  9999
2 54743   0.7238  20.7583 0003593  69.2688 211.5389  1.00271385 12840
TIANMU-1 03             
1 55973U 23039A   26155.17898714  .00016854  00000+0  33655-3 0  9998
2 55973  97.5232 328.6430 0004029 130.7822 229.3777 15.46896469178824
TIANMU-1 04             
1 55974U 23039B   26155.17343108  .00017000  00000+0  33267-3 0  9994
2 55974  97.5168 327.7903 0004745 128.9068 231.2605 15.47479630178835
TIANMU-1 05             
1 55975U 23039C   26155.15913253  .00016721  00000+0  33477-3 0  9999
2 55975  97.5215 328.2420 0003548 146.7498 213.3974 15.46824959178808
TIANMU-1 06             
1 55976U 23039D   26155.17602336  .00016904  00000+0  33187-3 0  9990
2 55976  97.5221 328.8824 0003943 142.5692 217.5833 15.47389013178830
FENGYUN 3G              
1 56232U 23055A   26155.17509281  .00028355  00000+0  43212-3 0  9992
2 56232  49.9933  53.1231 0005522 143.8334 216.3008 15.54192632177982
METEOR-M2 3             
1 57166U 23091A   26155.17020358  .00000019  00000+0  27162-4 0  9996
2 57166  98.6087 210.4142 0003598 191.2743 168.8355 14.24045698152660
TIANMU-1 07             
1 57399U 23101A   26155.14830795  .00007076  00000+0  24883-3 0  9993
2 57399  97.2593 206.1172 0003225 148.8958 211.2474 15.29648871159652
TIANMU-1 08             
1 57400U 23101B   26155.18040269  .00006908  00000+0  24293-3 0  9997
2 57400  97.2582 205.9211 0004845 147.6996 212.4542 15.29654733159655
TIANMU-1 09             
1 57401U 23101C   26155.16406101  .00007254  00000+0  25478-3 0  9998
2 57401  97.2540 205.3277 0003584 157.5098 202.6301 15.29680578159658
TIANMU-1 10             
1 57402U 23101D   26155.19686850  .00006993  00000+0  24589-3 0  9994
2 57402  97.2620 206.3969 0005163 161.7423 198.4004 15.29652000159652
FENGYUN 3F              
1 57490U 23111A   26155.14952613  .00000066  00000+0  51368-4 0  9991
2 57490  98.6837 225.4008 0001552 102.9046 257.2304 14.19936767147013
ARKTIKA-M 2             
1 58584U 23198A   26152.80817955  .00000145  00000+0  00000+0 0  9990
2 58584  63.2208 156.0807 6898127 267.4735  18.7853  2.00592153 18014
TIANMU-1 11             
1 58645U 23205A   26155.14347840  .00006372  00000+0  24394-3 0  9992
2 58645  97.3448 176.9062 0010350  58.3798 301.8449 15.26852872135537
TIANMU-1 12             
1 58646U 23205B   26155.11351978  .00006286  00000+0  24110-3 0  9997
2 58646  97.3436 176.6352 0008245  46.1922 313.9998 15.26813140135514
TIANMU-1 13             
1 58647U 23205C   26155.14445712  .00006523  00000+0  25121-3 0  9998
2 58647  97.3464 176.9362 0007510  28.1815 331.9829 15.26668367135517
TIANMU-1 14             
1 58648U 23205D   26155.13004466  .00006558  00000+0  25214-3 0  9996
2 58648  97.3401 176.1141 0008515  31.3521 328.8224 15.26713344135512
TIANMU-1 19             
1 58660U 23208A   26155.15391919  .00009138  00000+0  30409-3 0  9996
2 58660  97.4498 271.3903 0004960  19.8981 340.2453 15.31366812135330
TIANMU-1 20             
1 58661U 23208B   26155.13655193  .00009144  00000+0  29311-3 0  9999
2 58661  97.4440 271.9946 0007217  22.7006 337.4554 15.32558243135422
