OBJECT_NAME,OBJECT_ID,EPOCH,MEAN_MOTION,ECCENTRICITY,INCLINATION,RA_OF_ASC_NODE,ARG_OF_PERICENTER,MEAN_ANOMALY,EPHEMERIS_TYPE,CLASSIFICATION_TYPE,NORAD_CAT_ID,ELEMENT_SET_NO,REV_AT_EPOCH,BSTAR,MEAN_MOTION_DOT,MEAN_MOTION_DDOT
FENGYUN 3D,2017-072A,2026-06-04T04:19:10.803360,14.19737171,.0002628,99.0122,129.3677,83.1588,276.9886,0,U,43010,999,44314,.98819E-4,.163E-5,0
NOAA 20 (JPSS-1),2017-073A,2026-06-04T02:27:20.167200,14.19509214,.0000649,98.7770,94.6814,36.4151,323.7069,0,U,43013,999,44261,.5541E-4,.73E-6,0
GOES 17,2018-022A,2026-06-04T04:22:38.760384,1.00271727,.000076,0.9045,85.9525,5.2372,137.6159,0,U,43226,999,3029,0,-.171E-5,0
SENTINEL-3B,2018-039A,2026-06-04T01:48:36.433152,14.26737956,.0000983,98.6250,222.7952,75.0166,285.1124,0,U,43437,999,42225,.78971E-4,.147E-5,0
FENGYUN 2H,2018-050A,2026-06-04T01:57:44.352576,1.00272036,.0001422,2.9979,79.2237,127.7453,154.4556,0,U,43491,999,2930,0,-.12E-5,0
METOP-C,2018-087A,2026-06-04T02:48:07.167168,14.21508547,.0001248,98.6649,214.9587,143.7544,216.3718,0,U,43689,999,39297,.83862E-4,.14E-5,0
GEO-KOMPSAT-2A,2018-100A,2026-06-03T17:38:21.458976,1.00270341,.0002341,0.0517,140.6437,302.9772,201.4258,0,U,43823,999,2749,0,-.332E-5,0
METEOR-M2 2,2019-038A,2026-06-04T04:17:34.531296,14.24361453,.000235,98.9139,142.2728,67.4584,292.6843,0,U,44387,999,35944,-.434E-4,-.146E-5,0
ARKTIKA-M 1,2021-016A,2026-06-02T00:56:25.095840,2.00628509,.72832396,63.2379,59.8266,269.8643,14.6915,0,U,47719,999,3848,0,-.2E-5,0
FENGYUN 3E,2021-062A,2026-06-04T03:58:02.631072,14.19902065,.0002646,98.7488,158.7183,107.0352,253.1115,0,U,49008,999,25473,-.11121E-3,-.28E-5,0
GOES 18,2022-021A,2026-06-04T03:39:38.801952,1.00271598,.0000606,0.0403,137.3393,341.7058,51.4693,0,U,51850,999,646,0,.109E-5,0
NOAA 21 (JPSS-2),2022-150A,2026-06-04T03:15:24.123168,14.19563072,.0000911,98.7058,94.1442,188.6233,171.4927,0,U,54234,999,18469,.64299E-4,.92E-6,0
METEOSAT-12 (MTG-I1),2022-170C,2026-06-04T03:17:35.909088,1.00271385,.0003593,0.7238,20.7583,69.2688,211.5389,0,U,54743,999,1284,0,.3E-7,0
TIANMU-1 03,2023-039A,2026-06-04T04:17:44.488896,15.46896469,.0004029,97.5232,328.6430,130.7822,229.3777,0,U,55973,999,17882,.33655E-3,.16854E-3,0
TIANMU-1 04,2023-039B,2026-06-04T04:09:44.445312,15.47479630,.0004745,97.5168,327.7903,128.9068,231.2605,0,U,55974,999,17883,.33267E-3,.17E-3,0
TIANMU-1 05,2023-039C,2026-06-04T03:49:09.050592,15.46824959,.0003548,97.5215,328.2420,146.7498,213.3974,0,U,55975,999,17880,.33477E-3,.16721E-3,0
TIANMU-1 06,2023-039D,2026-06-04T04:13:28.418304,15.47389013,.0003943,97.5221,328.8824,142.5692,217.5833,0,U,55976,999,17883,.33187E-3,.16904E-3,0
FENGYUN 3G,2023-055A,2026-06-04T04:12:08.018784,15.54192632,.0005522,49.9933,53.1231,143.8334,216.3008,0,U,56232,999,17798,.43212E-3,.28355E-3,0
METEOR-M2 3,2023-091A,2026-06-04T04:05:05.589312,14.24045698,.0003598,98.6087,210.4142,191.2743,168.8355,0,U,57166,999,15266,.27162E-4,.19E-6,0
TIANMU-1 07,2023-101A,2026-06-04T03:33:33.806880,15.29648871,.0003225,97.2593,206.1172,148.8958,211.2474,0,U,57399,999,15965,.24883E-3,.7076E-4,0
TIANMU-1 08,2023-101B,2026-06-04T04:19:46.792416,15.29654733,.0004845,97.2582,205.9211,147.6996,212.4542,0,U,57400,999,15965,.24293E-3,.6908E-4,0
TIANMU-1 09,2023-101C,2026-06-04T03:56:14.871264,15.29680578,.0003584,97.2540,205.3277,157.5098,202.6301,0,U,57401,999,15965,.25478E-3,.7254E-4,0
TIANMU-1 10,2023-101D,2026-06-04T04:43:29.438400,15.29652000,.0005163,97.2620,206.3969,161.7423,198.4004,0,U,57402,999,15965,.24589E-3,.6993E-4,0
FENGYUN 3F,2023-111A,2026-06-04T03:35:19.057632,14.19936767,.0001552,98.6837,225.4008,102.9046,257.2304,0,U,57490,999,14701,.51368E-4,.66E-6,0
ARKTIKA-M 2,2023-198A,2026-06-01T19:23:46.713120,2.00592153,.68981271,63.2208,156.0807,267.4735,18.7853,0,U,58584,999,1801,0,.145E-5,0
TIANMU-1 11,2023-205A,2026-06-04T03:26:36.533760,15.26852872,.001035,97.3448,176.9062,58.3798,301.8449,0,U,58645,999,13553,.24394E-3,.6372E-4,0
TIANMU-1 12,2023-205B,2026-06-04T02:43:28.108992,15.26813140,.0008245,97.3436,176.6352,46.1922,313.9998,0,U,58646,999,13551,.2411E-3,.6286E-4,0
TIANMU-1 13,2023-205C,2026-06-04T03:28:01.095168,15.26668367,.000751,97.3464,176.9362,28.1815,331.9829,0,U,58647,999,13551,.25121E-3,.6523E-4,0
TIANMU-1 14,2023-205D,2026-06-04T03:07:15.858624,15.26713344,.0008515,97.3401,176.1141,31.3521,328.8224,0,U,58648,999,13551,.25214E-3,.6558E-4,0
TIANMU-1 19,2023-208A,2026-06-04T03:41:38.618016,15.31366812,.000496,97.4498,271.3903,19.8981,340.2453,0,U,58660,999,13533,.30409E-3,.9138E-4,0
TIANMU-1 20,2023-208B,2026-06-04T03:16:38.086752,15.32558243,.0007217,97.4440,271.9946,22.7006,337.4554,0,U,58661,999,13542,.29311E-3,.9144E-4,0
